COSMOS 2600             
1 67674U 26023A   26041.46624703  .00068915  00000+0  34439-3 0  9992
2 67674  96.6495 117.9652 0002083  68.6277 291.5215 15.81640853   748
2026-023B               
1 67675U 26023B   26037.83165961  .00002946  00000+0  13032-3 0  9993
2 67675  96.6397 114.3547 0017219 239.3232 120.6310 15.22205300   162
2026-023C               
1 67676U 26023C   26037.83163995  .00006231  00000+0  27219-3 0  9992
2 67676  96.6444 114.3671 0018177 231.2308 128.7307 15.22258115   159
2026-023D               
1 67677U 26023D   26041.51296579  .00010911  00000+0  47445-3 0  9991
2 67677  96.6476 117.6057 0018595 222.8552 137.1238 15.22250086   718
2026-023E               
1 67678U 26023E   26037.83165436  .00006205  00000+0  27128-3 0  9996
2 67678  96.6374 114.3623 0018163 237.2347 122.7142 15.22227869   157
2026-023F               
1 67679U 26023F   26037.83150241  .00006457  00000+0  28069-3 0  9999
2 67679  96.6417 116.8559 0020898 224.4168 135.5395 15.22365211   143
2026-023G               
1 67680U 26023G   26038.81744600  .00004315  00000+0  18946-3 0  9992
2 67680  96.6263 117.7523 0019658 223.6722 136.2962 15.22204274   299
2026-023H               
1 67681U 26023H   26037.83153515  .00006451  00000+0  28069-3 0  9993
2 67681  96.6335 116.8614 0021555 226.9356 133.0079 15.22318667   149
2026-023J               
1 67682U 26023J   26037.83150012  .00006460  00000+0  28055-3 0  9998
2 67682  96.6412 116.8562 0021119 228.0113 131.9327 15.22391354   145
ISS OBJECT XZ           
1 67683U 98067XZ  26041.46743420  .00035000  00000+0  62572-3 0  9995
2 67683  51.6304 206.8773 0010876  99.0096 261.2124 15.49613290   568
GXIBA-1                 
1 67684U 98067YA  26041.46585994  .00065950  00000+0  11430-2 0  9999
2 67684  51.6304 206.8683 0012743  93.6445 266.6001 15.50183981   566
CORAL                   
1 67685U 98067YB  26041.46708557  .00041304  00000+0  73274-3 0  9994
2 67685  51.6305 206.8754 0012806  94.3864 265.8588 15.49728993   567
